QIANFAN-41              
1 62242U 24232F   25253.44069966  .00000041  00000+0  44308-4 0  9997
2 62242  88.9960  50.6057 0015896 100.3591 259.9353 13.50969391 86656
QIANFAN-42              
1 62243U 24232G   25253.41164523  .00000148  00000+0  57523-4 0  9991
2 62243  88.9961  48.0085 0016146  37.2031 323.0277 14.24346476 88088
QIANFAN-43              
1 62244U 24232H   25253.43660259  .00000048  00000+0  55278-4 0  9995
2 62244  88.9965  50.6673 0017389 105.1285 255.1791 13.50966711 55269
QIANFAN-44              
1 62245U 24232J   25253.35019495  .00000035  00000+0  35331-4 0  9991
2 62245  88.9963  50.4883 0015620 102.5913 257.6986 13.50965312 86728
QIANFAN-45              
1 62246U 24232K   25253.39133355  .00000048  00000+0  55008-4 0  9995
2 62246  88.9966  50.6274 0016267 102.2159 258.0815 13.50968858 86651
QIANFAN-46              
1 62247U 24232L   25253.41600741  .00000034  00000+0  33064-4 0  9990
2 62247  88.9962  50.6977 0016321 107.0167 253.2774 13.50969552 86610
QIANFAN-47              
1 62248U 24232M   25253.42011590  .00000035  00000+0  35252-4 0  9992
2 62248  88.9959  50.6340 0016743 106.2973 254.0021 13.50963005 86649
QIANFAN-48              
1 62249U 24232N   25253.45717010  .00000042  00000+0  46594-4 0  9995
2 62249  88.9962  50.6284 0018982 108.7233 251.5980 13.50966502 86656
